INTELSAT 30 (IS-30)     
1 40271U 14062A   17309.39036799 -.00000153  00000-0  00000+0 0  9992
2 40271   0.0148 277.9500 0001453 193.0213 339.3069  1.00270279 11228
ARSAT 1                 
1 40272U 14062B   17308.83313209 -.00000261  00000-0  00000+0 0  9995
2 40272   0.0183 167.9537 0001672  71.2933  33.1723  1.00271783 11334
EXPRESS-AM6             
1 40277U 14064A   17308.90462691  .00000096  00000-0  00000-0 0  9996
2 40277   0.0091 308.5404 0000818 335.7697 138.7209  1.00271564 10033
GSAT-16                 
1 40332U 14078A   17308.72461732  .00000083  00000-0  00000-0 0  9994
2 40332   0.0917 274.6936 0004229 225.3079 220.0693  1.00273638 10589
DIRECTV 14              
1 40333U 14078B   17309.35919524 -.00000128  00000-0  00000+0 0  9992
2 40333   0.0200 282.8048 0000726  46.8848 105.1947  1.00272032 10704
YAMAL 401               
1 40345U 14082A   17308.31468117 -.00000229  00000-0  00000+0 0  9994
2 40345   0.0026 314.0688 0000246 245.2287  47.6957  1.00269914 10852
ASTRA 2G                
1 40364U 14089A   17308.79882591  .00000149  00000-0  00000-0 0  9991
2 40364   0.0516  52.7948 0000730  36.8143 270.4387  1.00269690 10411
FENGYUN 2G              
1 40367U 14090A   17308.97744300 -.00000332  00000-0  00000-0 0  9996
2 40367   0.1960 220.4624 0002548  66.6536 213.7466  1.00278427 10493
INMARSAT 5-F2           
1 40384U 15005A   17309.20879505 -.00000287  00000-0  00000+0 0  9993
2 40384   0.0185 272.7378 0000204 201.2719 310.8374  1.00271387 10139
ABS-3A                  
1 40424U 15010A   17308.88525237 -.00000028  00000-0  00000+0 0  9990
2 40424   0.0226 274.4971 0002196 233.6700 211.8461  1.00269448  9869
EUTELSAT 115 WEST B     
1 40425U 15010B   17309.19529925 -.00000027  00000-0  00000+0 0  9993
2 40425   0.0209 107.1959 0000406 329.6766 283.1710  1.00270614  9898
EXPRESS-AM7             
1 40505U 15012A   17308.94600212  .00000149  00000-0  00000+0 0  9999
2 40505   0.0086 256.4447 0002395 324.9884 203.5384  1.00274232  9813
IRNSS-1D                
1 40547U 15018A   17308.38110583 -.00000321  00000-0  00000+0 0  9999
2 40547  28.8115 292.8073 0019538 186.8888 173.0341  1.00268550  9691
THOR 7                  
1 40613U 15022A   17308.87871889 -.00000009  00000-0  00000+0 0  9998
2 40613   0.0358 117.3082 0002794 100.3901 142.3214  1.00270783  9273
TURKMENALEM52E/MONACOSAT
1 40617U 15023A   17308.73282502  .00000103  00000-0  00000+0 0  9990
2 40617   0.0122 304.7440 0002071 282.0746 133.2036  1.00272346  9299
DIRECTV 15              
1 40663U 15026A   17309.16159180 -.00000105  00000-0  00000+0 0  9990
2 40663   0.0105 255.6790 0000558 274.1774 190.1446  1.00271314  8991
SKY MEXICO-1            
1 40664U 15026B   17309.09518599 -.00000236  00000-0  00000+0 0  9991
2 40664   0.0141 272.3830 0002328 309.1755 138.4629  1.00272119  8990
METEOSAT-11 (MSG-4)     
1 40732U 15034A   17308.53381487 -.00000027  00000-0  00000-0 0  9997
2 40732   1.5941 232.2952 0001499  37.1657 323.2470  1.00275168  8497
STAR ONE C4             
1 40733U 15034B   17309.07075991 -.00000267  00000-0  00000+0 0  9993
2 40733   0.0569  66.1004 0002567 196.4293  97.4803  1.00269538  8496
INTELSAT 34 (IS-34)     
1 40874U 15039A   17309.03070929 -.00000287  00000-0  00000+0 0  9998
2 40874   0.0160 271.3953 0000511 298.0090 150.6321  1.00271897  8132
EUTELSAT 8 WEST B       
1 40875U 15039B   17307.90177576 -.00000065  00000-0  00000+0 0  9993
2 40875   0.0689   0.1722 0003097 237.6954 122.1426  1.00272251  8136
GSAT-6                  
1 40880U 15041A   17308.64664892 -.00000166  00000-0  00000+0 0  9998
2 40880   0.0619  93.8834 0009673 165.5679 100.4794  1.00271736  8085
INMARSAT 5-F3           
1 40882U 15042A   17309.37673708  .00000048  00000-0  00000+0 0  9996
2 40882   0.0189 274.2285 0000427  12.8407  72.9647  1.00270597  8012
TJS-1                   
1 40892U 15046A   17308.69351617 -.00000157  00000-0  00000-0 0  9990
2 40892   0.0171 282.8803 0006978  63.6351 102.3340  1.00270348  8005
EXPRESS-AM8             
1 40895U 15048A   17309.26162331 -.00000113  00000-0  00000+0 0  9993
2 40895   0.0025 302.0816 0000920 326.4516 216.3714  1.00272309  7839
SKY MUSTER (NBN1A)      
1 40940U 15054A   17308.48841566 -.00000279  00000-0  00000-0 0  9992
2 40940   0.0134 270.2859 0001927 312.3804 137.3586  1.00271850  7745
ARSAT 2                 
1 40941U 15054B   17309.10128222 -.00000226  00000-0  00000+0 0  9991
2 40941   0.0115 230.8434 0002153   5.5802 123.5559  1.00270126  7772
MORELOS 3               
1 40946U 15056A   17309.10430302 -.00000055  00000-0  00000+0 0  9993
2 40946   6.2427 329.1287 0000178  39.6754 320.1804  1.00272124  7743
APSTAR 9                
1 40982U 15059A   17309.48073659 -.00000268  00000-0  00000+0 0  9991
2 40982   0.0113 134.4503 0001972 126.3808  99.1466  1.00269172  7614
TURKSAT 4B              
1 40984U 15060A   17308.73829328  .00000114  00000-0  00000+0 0  9993
2 40984   0.0104 279.3644 0002451 308.6930 131.9217  1.00267304  7563
CHINASAT 2C (ZX 2C)     
1 41021U 15063A   17308.66989019 -.00000325  00000-0  00000+0 0  9990
2 41021   0.0003 314.4598 0003552 356.7694  77.5077  1.00271144  7462
GSAT-15                 
1 41028U 15065A   17308.61786879 -.00000259  00000-0  00000+0 0  9999
2 41028   0.0417 267.1105 0003351 313.4318 139.4725  1.00270698  7311
BADR-7 (ARABSAT-6B)     
1 41029U 15065B   17308.80481965  .00000143  00000-0  00000-0 0  9991
2 41029   0.0524 260.6806 0006031 330.8609 128.4438  1.00270472  7219
LAOSAT 1                
1 41034U 15067A   17308.52105425 -.00000344  00000-0  00000-0 0  9996
2 41034   0.0185  86.0956 0001520 102.4813 171.4205  1.00266737  7312
TELSTAR 12V             
1 41036U 15068A   17308.91843705 -.00000120  00000-0  00000+0 0  9993
2 41036   0.0138 264.0661 0002167 323.7773 132.1382  1.00270259  7183
CHINASAT 1C (ZX 1C)     
1 41103U 15073A   17309.51160367 -.00000153  00000-0  00000+0 0  9993
2 41103   0.0043 300.3844 0005654 338.2854  31.9707  1.00273155  7124
ELEKTRO-L 2             
1 41105U 15074A   17309.33313167 -.00000100  00000-0  00000+0 0  9996
2 41105   0.0405 346.3585 0003160 280.4461 333.9214  1.00272875  6970
COSMOS 2513             
1 41121U 15075A   17308.22500669 -.00000139  00000-0  00000+0 0  9999
2 41121   0.0754  96.2854 0003799 148.4243 320.2306  1.00271140  7048
EXPRESS-AMU1            
1 41191U 15082A   17308.17063231  .00000155  00000-0  00000+0 0  9994
2 41191   0.0124 258.1271 0002480 320.0609 283.0069  1.00274248  6951
GAOFEN 4                
1 41194U 15083A   17308.76087639 -.00000336  00000-0  00000+0 0  9993
2 41194   0.0425 279.0458 0005548 321.6120 183.2161  1.00270970  6941
BELINTERSAT-1           
1 41238U 16001A   17308.87615610  .00000105  00000-0  00000-0 0  9995
2 41238   0.0149 261.5656 0001619 277.9745 231.7111  1.00273577  6726
IRNSS-1E                
1 41241U 16003A   17306.88382859 -.00000245  00000-0  00000+0 0  9991
2 41241  29.0072 112.2911 0019385 176.9341 183.1164  1.00274308  6621
INTELSAT 29E (IS-29E)   
1 41308U 16004A   17309.01543049 -.00000284  00000-0  00000+0 0  9997
2 41308   0.0198 245.1270 0001977 339.3203 135.5369  1.00269168  6612
EUTELSAT 9B             
1 41310U 16005A   17308.85188067  .00000061  00000-0  00000-0 0  9990
2 41310   0.0764  91.8414 0005580 177.8641  90.2701  1.00272409  6568
SES-9                   
1 41380U 16013A   17308.57693604 -.00000346  00000-0  00000-0 0  9990
2 41380   0.0193 298.5145 0001141 270.1524 151.3666  1.00271314  5948
EUTELSAT 65 WEST A      
1 41382U 16014A   17309.05745177 -.00000278  00000-0  00000+0 0  9993
2 41382   0.0538   9.9295 0002060 217.5526 132.5395  1.00271930  6104
IRNSS-1F                
1 41384U 16015A   17307.51674528  .00000156  00000-0  00000+0 0  9990
2 41384   3.8748 261.5834 0017495 184.6822 175.2300  1.00269101  6136
IRNSS-1G                
1 41469U 16027A   17309.24665515 -.00000338  00000-0  00000+0 0  9998
2 41469   3.9420 263.0065 0003795 197.1062 162.8594  1.00277504  5653
JCSAT 2B                
1 41471U 16028A   17309.44755156 -.00000168  00000-0  00000+0 0  9996
2 41471   0.0196 264.3059 0002167 325.9829 129.6920  1.00269521  5547
THAICOM 8               
1 41552U 16031A   17308.65942417 -.00000123  00000-0  00000+0 0  9991
2 41552   0.0708  57.1137 0001683 251.7193  51.1917  1.00272523  5230
INTELSAT 31 (IS-31)     
1 41581U 16035A   17308.14298925 -.00000150  00000-0  00000-0 0  9990
2 41581   0.0195 249.7539 0001599 347.3524 122.9186  1.00269033  5140
BEIDOU G7               
1 41586U 16037A   17308.37909011 -.00000250  00000-0  00000-0 0  9998
2 41586   1.0331 326.0080 0003981 276.2699  82.5129  1.00275587  5248
ABS-2A (MONGOLSAT-1)    
1 41588U 16038A   17308.67011511 -.00000084  00000-0  00000+0 0  9997
2 41588   0.0111 251.2236 0001727 252.5980 216.1901  1.00270107  5160
EUTELSAT 117 WEST B     
1 41589U 16038B   17309.20108224 -.00000013  00000-0  00000+0 0  9998
2 41589   0.0172 113.4705 0000394 293.3405 313.2312  1.00267938  5176
BRISAT                  
1 41591U 16039A   17308.45998971 -.00000197  00000-0  00000+0 0  9997
2 41591   0.0109 275.6647 0002385 304.7049 139.6526  1.00271935  5098
ECHOSTAR 18             
1 41592U 16039B   17308.04951642 -.00000282  00000-0  00000+0 0  9992
2 41592   0.0226 133.9509 0002183 100.7021 125.3669  1.00271984  5074
TIANTONG-1 1            
1 41725U 16048A   17308.85153000 -.00000324  00000-0  00000+0 0  9998
2 41725   4.3921 325.5895 0004753 330.3327 156.3343  1.00271137  4727
JCSAT-16                
1 41729U 16050A   17308.42794795 -.00000093  00000-0  00000+0 0  9993
2 41729   0.0207 256.7497 0001904 337.2819 125.9507  1.00269196  4525
INTELSAT 36 (IS-36)     
1 41747U 16053A   17308.68719479 -.00000026  00000-0  00000+0 0  9996
2 41747   0.0202 332.9919 0003322   1.2177  25.8137  1.00271962  4427
